KUIPER-00408            
1 68924U 26098F   26190.94105674  .00018968  00000+0  72326-3 0  9992
2 68924  51.8771 320.9260 0018153 227.1343 132.8115 15.26565790 10808
KUIPER-00409            
1 68925U 26098G   26191.25002315 -.00132003  00000+0 -80225-2 0  9991
2 68925  51.8869 318.2016 0004821 262.9084 210.1704 15.10595521  2692
KUIPER-00410            
1 68926U 26098H   26190.87137490  .00007134  00000+0  28144-3 0  9999
2 68926  51.8759 321.2009 0012879 236.2175 123.7581 15.26553464 10793
KUIPER-00412            
1 68927U 26098J   26191.33008574  .00018389  00000+0  50002-3 0  9994
2 68927  51.8795 315.3988 0003106 319.2620  40.8134 15.37588350 10915
KUIPER-00413            
1 68928U 26098K   26191.25002315 -.01199274  00000+0 -74326-1 0  9992
2 68928  51.8843 320.5929 0021509 245.0272 148.3105 15.12120448  5514
KUIPER-00414            
1 68929U 26098L   26190.74570097  .00002135  00000+0  30891-3 0  9990
2 68929  51.8985 331.0055 0001172 246.0274 114.0566 14.79937529 10645
KUIPER-00415            
1 68930U 26098M   26191.00822933  .00011734  00000+0  40582-3 0  9994
2 68930  51.8802 319.1840 0009001 227.4488 132.5736 15.30296788 10831
KUIPER-00416            
1 68931U 26098N   26190.93214149  .00020222  00000+0  54943-3 0  9998
2 68931  51.8754 317.2129 0001553 314.7093  45.3767 15.37548473 10858
KUIPER-00420            
1 68932U 26098P   26190.71845977  .00013969  00000+0  39490-3 0  9994
2 68932  51.8772 318.7821 0003292 287.6969  72.3658 15.36597835 10816
KUIPER-00421            
1 68933U 26098Q   26190.98085953  .00002531  00000+0  98022-4 0  9994
2 68933  51.8785 319.0025 0007680 213.1650 146.8853 15.30040845 10831
KUIPER-00425            
1 68934U 26098R   26191.25002315 -.01436862  00000+0 -67667-1 0  9996
2 68934  51.8800 319.5328 0014423 234.5881 338.6232 15.22342662  5791
KUIPER-00430            
1 68935U 26098S   26191.25002315 -.00816348  00000+0 -54180-1 0  9993
2 68935  51.8908 320.1484 0018388 237.1712  82.7113 15.09123264  5366
KUIPER-00431            
1 68936U 26098T   26191.25002315  .00018125  00000+0  17012-2 0  9993
2 68936  51.8927 321.6171 0014499 227.7553  32.2337 14.93935917  3605
KUIPER-00432            
1 68937U 26098U   26191.00252567 -.00013867  00000+0 -48801-3 0  9994
2 68937  51.8787 319.8225 0018451 213.4055 146.5765 15.27853669 10827
KUIPER-00434            
1 68938U 26098V   26191.25002315  .00030214  00000+0  16753-2 0  9999
2 68938  51.8848 318.1389 0003705 194.3981  25.8237 15.13524960  5506
KUIPER-00436            
1 68939U 26098W   26191.25002315 -.01080167  00000+0 -60062-1 0  9996
2 68939  51.8824 318.5387 0009084 240.1672 130.8441 15.15871841  4290
