{"fetched_at":"2026-07-10T18:07:50.152Z","source":"https://celestrak.org/NORAD/elements/gp.php?GROUP=kuiper&FORMAT=JSON","constellation":"kuiper","records":[{"OBJECT_NAME":"KUIPER-00408","OBJECT_ID":"2026-098F","EPOCH":"2026-07-09T22:35:07.302336","CLASSIFICATION_TYPE":"U","MEAN_MOTION":15.2656579,"ECCENTRICITY":0.00181534,"INCLINATION":51.8771,"RA_OF_ASC_NODE":320.926,"ARG_OF_PERICENTER":227.1343,"MEAN_ANOMALY":132.8115,"EPHEMERIS_TYPE":0,"NORAD_CAT_ID":68924,"ELEMENT_SET_NO":999,"REV_AT_EPOCH":1080,"BSTAR":0.0007232643,"MEAN_MOTION_DOT":0.00018968,"MEAN_MOTION_DDOT":0},{"OBJECT_NAME":"KUIPER-00409","OBJECT_ID":"2026-098G","EPOCH":"2026-07-10T06:00:02.000160","CLASSIFICATION_TYPE":"U","MEAN_MOTION":15.10595521,"ECCENTRICITY":0.00048211,"INCLINATION":51.8869,"RA_OF_ASC_NODE":318.2016,"ARG_OF_PERICENTER":262.9084,"MEAN_ANOMALY":210.1704,"EPHEMERIS_TYPE":0,"NORAD_CAT_ID":68925,"ELEMENT_SET_NO":999,"REV_AT_EPOCH":269,"BSTAR":-0.0080225181,"MEAN_MOTION_DOT":-0.00132003,"MEAN_MOTION_DDOT":0},{"OBJECT_NAME":"KUIPER-00410","OBJECT_ID":"2026-098H","EPOCH":"2026-07-09T20:54:46.791360","CLASSIFICATION_TYPE":"U","MEAN_MOTION":15.26553464,"ECCENTRICITY":0.00128798,"INCLINATION":51.8759,"RA_OF_ASC_NODE":321.2009,"ARG_OF_PERICENTER":236.2175,"MEAN_ANOMALY":123.7581,"EPHEMERIS_TYPE":0,"NORAD_CAT_ID":68926,"ELEMENT_SET_NO":999,"REV_AT_EPOCH":1079,"BSTAR":0.00028144052,"MEAN_MOTION_DOT":0.00007134,"MEAN_MOTION_DDOT":0},{"OBJECT_NAME":"KUIPER-00412","OBJECT_ID":"2026-098J","EPOCH":"2026-07-10T07:55:19.407936","CLASSIFICATION_TYPE":"U","MEAN_MOTION":15.3758835,"ECCENTRICITY":0.00031065,"INCLINATION":51.8795,"RA_OF_ASC_NODE":315.3988,"ARG_OF_PERICENTER":319.262,"MEAN_ANOMALY":40.8134,"EPHEMERIS_TYPE":0,"NORAD_CAT_ID":68927,"ELEMENT_SET_NO":999,"REV_AT_EPOCH":1091,"BSTAR":0.00050002144,"MEAN_MOTION_DOT":0.00018389,"MEAN_MOTION_DDOT":0},{"OBJECT_NAME":"KUIPER-00413","OBJECT_ID":"2026-098K","EPOCH":"2026-07-10T06:00:02.000160","CLASSIFICATION_TYPE":"U","MEAN_MOTION":15.12120448,"ECCENTRICITY":0.00215094,"INCLINATION":51.8843,"RA_OF_ASC_NODE":320.5929,"ARG_OF_PERICENTER":245.0272,"MEAN_ANOMALY":148.3105,"EPHEMERIS_TYPE":0,"NORAD_CAT_ID":68928,"ELEMENT_SET_NO":999,"REV_AT_EPOCH":551,"BSTAR":-0.074326049,"MEAN_MOTION_DOT":-0.01199274,"MEAN_MOTION_DDOT":0},{"OBJECT_NAME":"KUIPER-00414","OBJECT_ID":"2026-098L","EPOCH":"2026-07-09T17:53:48.563808","CLASSIFICATION_TYPE":"U","MEAN_MOTION":14.79937529,"ECCENTRICITY":0.00011722,"INCLINATION":51.8985,"RA_OF_ASC_NODE":331.0055,"ARG_OF_PERICENTER":246.0274,"MEAN_ANOMALY":114.0566,"EPHEMERIS_TYPE":0,"NORAD_CAT_ID":68929,"ELEMENT_SET_NO":999,"REV_AT_EPOCH":1064,"BSTAR":0.00030891177,"MEAN_MOTION_DOT":0.00002135,"MEAN_MOTION_DDOT":0},{"OBJECT_NAME":"KUIPER-00415","OBJECT_ID":"2026-098M","EPOCH":"2026-07-10T00:11:51.014112","CLASSIFICATION_TYPE":"U","MEAN_MOTION":15.30296788,"ECCENTRICITY":0.00090018,"INCLINATION":51.8802,"RA_OF_ASC_NODE":319.184,"ARG_OF_PERICENTER":227.4488,"MEAN_ANOMALY":132.5736,"EPHEMERIS_TYPE":0,"NORAD_CAT_ID":68930,"ELEMENT_SET_NO":999,"REV_AT_EPOCH":1083,"BSTAR":0.00040582013,"MEAN_MOTION_DOT":0.00011734,"MEAN_MOTION_DDOT":0},{"OBJECT_NAME":"KUIPER-00416","OBJECT_ID":"2026-098N","EPOCH":"2026-07-09T22:22:17.024736","CLASSIFICATION_TYPE":"U","MEAN_MOTION":15.37548473,"ECCENTRICITY":0.00015533,"INCLINATION":51.8754,"RA_OF_ASC_NODE":317.2129,"ARG_OF_PERICENTER":314.7093,"MEAN_ANOMALY":45.3767,"EPHEMERIS_TYPE":0,"NORAD_CAT_ID":68931,"ELEMENT_SET_NO":999,"REV_AT_EPOCH":1085,"BSTAR":0.00054942652,"MEAN_MOTION_DOT":0.00020222,"MEAN_MOTION_DDOT":0},{"OBJECT_NAME":"KUIPER-00420","OBJECT_ID":"2026-098P","EPOCH":"2026-07-09T17:14:34.924128","CLASSIFICATION_TYPE":"U","MEAN_MOTION":15.36597835,"ECCENTRICITY":0.00032929,"INCLINATION":51.8772,"RA_OF_ASC_NODE":318.7821,"ARG_OF_PERICENTER":287.6969,"MEAN_ANOMALY":72.3658,"EPHEMERIS_TYPE":0,"NORAD_CAT_ID":68932,"ELEMENT_SET_NO":999,"REV_AT_EPOCH":1081,"BSTAR":0.00039490245,"MEAN_MOTION_DOT":0.00013969,"MEAN_MOTION_DDOT":0},{"OBJECT_NAME":"KUIPER-00421","OBJECT_ID":"2026-098Q","EPOCH":"2026-07-09T23:32:26.263392","CLASSIFICATION_TYPE":"U","MEAN_MOTION":15.30040845,"ECCENTRICITY":0.00076806,"INCLINATION":51.8785,"RA_OF_ASC_NODE":319.0025,"ARG_OF_PERICENTER":213.165,"MEAN_ANOMALY":146.8853,"EPHEMERIS_TYPE":0,"NORAD_CAT_ID":68933,"ELEMENT_SET_NO":999,"REV_AT_EPOCH":1083,"BSTAR":0.00009802211,"MEAN_MOTION_DOT":0.00002531,"MEAN_MOTION_DDOT":0},{"OBJECT_NAME":"KUIPER-00425","OBJECT_ID":"2026-098R","EPOCH":"2026-07-10T06:00:02.000160","CLASSIFICATION_TYPE":"U","MEAN_MOTION":15.22342662,"ECCENTRICITY":0.00144236,"INCLINATION":51.88,"RA_OF_ASC_NODE":319.5328,"ARG_OF_PERICENTER":234.5881,"MEAN_ANOMALY":338.6232,"EPHEMERIS_TYPE":0,"NORAD_CAT_ID":68934,"ELEMENT_SET_NO":999,"REV_AT_EPOCH":579,"BSTAR":-0.067667087,"MEAN_MOTION_DOT":-0.01436862,"MEAN_MOTION_DDOT":0},{"OBJECT_NAME":"KUIPER-00430","OBJECT_ID":"2026-098S","EPOCH":"2026-07-10T06:00:02.000160","CLASSIFICATION_TYPE":"U","MEAN_MOTION":15.09123264,"ECCENTRICITY":0.00183886,"INCLINATION":51.8908,"RA_OF_ASC_NODE":320.1484,"ARG_OF_PERICENTER":237.1712,"MEAN_ANOMALY":82.7113,"EPHEMERIS_TYPE":0,"NORAD_CAT_ID":68935,"ELEMENT_SET_NO":999,"REV_AT_EPOCH":536,"BSTAR":-0.054179899,"MEAN_MOTION_DOT":-0.00816348,"MEAN_MOTION_DDOT":0},{"OBJECT_NAME":"KUIPER-00431","OBJECT_ID":"2026-098T","EPOCH":"2026-07-10T06:00:02.000160","CLASSIFICATION_TYPE":"U","MEAN_MOTION":14.93935917,"ECCENTRICITY":0.00144997,"INCLINATION":51.8927,"RA_OF_ASC_NODE":321.6171,"ARG_OF_PERICENTER":227.7553,"MEAN_ANOMALY":32.2337,"EPHEMERIS_TYPE":0,"NORAD_CAT_ID":68936,"ELEMENT_SET_NO":999,"REV_AT_EPOCH":360,"BSTAR":0.0017011505,"MEAN_MOTION_DOT":0.00018125,"MEAN_MOTION_DDOT":0},{"OBJECT_NAME":"KUIPER-00432","OBJECT_ID":"2026-098U","EPOCH":"2026-07-10T00:03:38.217888","CLASSIFICATION_TYPE":"U","MEAN_MOTION":15.27853669,"ECCENTRICITY":0.00184515,"INCLINATION":51.8787,"RA_OF_ASC_NODE":319.8225,"ARG_OF_PERICENTER":213.4055,"MEAN_ANOMALY":146.5765,"EPHEMERIS_TYPE":0,"NORAD_CAT_ID":68937,"ELEMENT_SET_NO":999,"REV_AT_EPOCH":1082,"BSTAR":-0.00048801407,"MEAN_MOTION_DOT":-0.00013867,"MEAN_MOTION_DDOT":0},{"OBJECT_NAME":"KUIPER-00434","OBJECT_ID":"2026-098V","EPOCH":"2026-07-10T06:00:02.000160","CLASSIFICATION_TYPE":"U","MEAN_MOTION":15.1352496,"ECCENTRICITY":0.00037055,"INCLINATION":51.8848,"RA_OF_ASC_NODE":318.1389,"ARG_OF_PERICENTER":194.3981,"MEAN_ANOMALY":25.8237,"EPHEMERIS_TYPE":0,"NORAD_CAT_ID":68938,"ELEMENT_SET_NO":999,"REV_AT_EPOCH":550,"BSTAR":0.0016753147,"MEAN_MOTION_DOT":0.00030214,"MEAN_MOTION_DDOT":0},{"OBJECT_NAME":"KUIPER-00436","OBJECT_ID":"2026-098W","EPOCH":"2026-07-10T06:00:02.000160","CLASSIFICATION_TYPE":"U","MEAN_MOTION":15.15871841,"ECCENTRICITY":0.00090842,"INCLINATION":51.8824,"RA_OF_ASC_NODE":318.5387,"ARG_OF_PERICENTER":240.1672,"MEAN_ANOMALY":130.8441,"EPHEMERIS_TYPE":0,"NORAD_CAT_ID":68939,"ELEMENT_SET_NO":999,"REV_AT_EPOCH":429,"BSTAR":-0.060061685,"MEAN_MOTION_DOT":-0.01080167,"MEAN_MOTION_DDOT":0}]}
